[{"OBJECT_NAME":"STARLINK-32292","OBJECT_ID":"2024-204R","EPOCH":"2026-03-09T12:54:54.352512","MEAN_MOTION":15.30187281,"ECCENTRICITY":0.00010456,"INCLINATION":53.1601,"RA_OF_ASC_NODE":127.8321,"ARG_OF_PERICENTER":122.8246,"MEAN_ANOMALY":237.2855,"EPHEMERIS_TYPE":0,"CLASSIFICATION_TYPE":"U","NORAD_CAT_ID":61889,"ELEMENT_SET_NO":999,"REV_AT_EPOCH":7507,"BSTAR":-1.7371457e-5,"MEAN_MOTION_DOT":-8.73e-6,"MEAN_MOTION_DDOT":0},{"OBJECT_NAME":"TEVEL2-6","OBJECT_ID":"2025-052F","EPOCH":"2026-03-09T15:35:24.554400","MEAN_MOTION":15.30760889,"ECCENTRICITY":0.0004769,"INCLINATION":97.4016,"RA_OF_ASC_NODE":325.0381,"ARG_OF_PERICENTER":95.6604,"MEAN_ANOMALY":264.5181,"EPHEMERIS_TYPE":0,"CLASSIFICATION_TYPE":"U","NORAD_CAT_ID":63215,"ELEMENT_SET_NO":999,"REV_AT_EPOCH":5486,"BSTAR":0.00070909,"MEAN_MOTION_DOT":0.00021046,"MEAN_MOTION_DDOT":0}]
